{
  "type": "FeatureCollection",
  "features": [
    {
      "type": "Feature",
      "properties": {
        "norad_id": 33886,
        "name": "IRIDIUM 33 DEB",
        "group": "iridium-33-debris",
        "lat": -4.6304245448314365,
        "lon": -116.4466994355848,
        "alt_km": 766.5778792268648,
        "timestamp": "2025-12-22T04:03:39.553644+00:00",
        "meta_object_name": "IRIDIUM 33 DEB",
        "meta_object_id": "1997-051BF",
        "meta_epoch": "2025-12-21T17:43:24.779136",
        "meta_mean_motion": 14.36061544,
        "meta_eccentricity": 0.0013109,
        "meta_inclination": 86.3822,
        "meta_ra_of_asc_node": 63.441,
        "meta_arg_of_pericenter": 209.4261,
        "meta_mean_anomaly": 269.7829,
        "meta_ephemeris_type": 0,
        "meta_classification_type": "U",
        "meta_norad_cat_id": 33886,
        "meta_element_set_no": 999,
        "meta_rev_at_epoch": 88181,
        "meta_bstar": 0.00014921,
        "meta_mean_motion_dot": 4.54e-06,
        "meta_mean_motion_ddot": 0,
        "tle_line1": "1 33886U 97051BF  25355.73848124  .00000454  00000+0  14921-3 0  9999",
        "tle_line2": "2 33886  86.3822  63.4410 0013109 209.4261 269.7829 14.36061544881818"
      },
      "geometry": {
        "type": "Point",
        "coordinates": [
          -116.4466994355848,
          -4.6304245448314365
        ]
      }
    },
    {
      "type": "Feature",
      "properties": {
        "norad_id": 33887,
        "name": "IRIDIUM 33 DEB",
        "group": "iridium-33-debris",
        "lat": 19.43806051113966,
        "lon": 178.0213272737037,
        "alt_km": 764.5270818408026,
        "timestamp": "2025-12-22T04:03:39.553654+00:00",
        "meta_object_name": "IRIDIUM 33 DEB",
        "meta_object_id": "1997-051BG",
        "meta_epoch": "2025-12-21T18:06:57.603168",
        "meta_mean_motion": 14.37228506,
        "meta_eccentricity": 0.0005394,
        "meta_inclination": 86.3041,
        "meta_ra_of_asc_node": 359.5069,
        "meta_arg_of_pericenter": 190.9714,
        "meta_mean_anomaly": 346.844,
        "meta_ephemeris_type": 0,
        "meta_classification_type": "U",
        "meta_norad_cat_id": 33887,
        "meta_element_set_no": 999,
        "meta_rev_at_epoch": 88294,
        "meta_bstar": 0.00011881,
        "meta_mean_motion_dot": 3.73e-06,
        "meta_mean_motion_ddot": 0,
        "tle_line1": "1 33887U 97051BG  25355.75483337  .00000373  00000+0  11881-3 0  9995",
        "tle_line2": "2 33887  86.3041 359.5069 0005394 190.9714 346.8440 14.37228506882940"
      },
      "geometry": {
        "type": "Point",
        "coordinates": [
          178.0213272737037,
          19.43806051113966
        ]
      }
    },
    {
      "type": "Feature",
      "properties": {
        "norad_id": 33953,
        "name": "IRIDIUM 33 DEB",
        "group": "iridium-33-debris",
        "lat": -86.28005655467376,
        "lon": -26.881818919184514,
        "alt_km": 727.6359051554,
        "timestamp": "2025-12-22T04:03:39.553665+00:00",
        "meta_object_name": "IRIDIUM 33 DEB",
        "meta_object_id": "1997-051BN",
        "meta_epoch": "2025-12-21T03:57:52.116192",
        "meta_mean_motion": 14.55395308,
        "meta_eccentricity": 0.00178869,
        "meta_inclination": 86.3839,
        "meta_ra_of_asc_node": 50.1227,
        "meta_arg_of_pericenter": 77.1433,
        "meta_mean_anomaly": 336.6692,
        "meta_ephemeris_type": 0,
        "meta_classification_type": "U",
        "meta_norad_cat_id": 33953,
        "meta_element_set_no": 999,
        "meta_rev_at_epoch": 88426,
        "meta_bstar": 0.0006943937,
        "meta_mean_motion_dot": 3.042e-05,
        "meta_mean_motion_ddot": 0,
        "tle_line1": "1 33953U 97051BN  25355.16518653  .00003042  00000+0  69439-3 0  9992",
        "tle_line2": "2 33953  86.3839  50.1227 0017886  77.1433 336.6692 14.55395308884260"
      },
      "geometry": {
        "type": "Point",
        "coordinates": [
          -26.881818919184514,
          -86.28005655467376
        ]
      }
    },
    {
      "type": "Feature",
      "properties": {
        "norad_id": 33960,
        "name": "IRIDIUM 33 DEB",
        "group": "iridium-33-debris",
        "lat": 13.771530271947501,
        "lon": -74.01291448182428,
        "alt_km": 608.4060130846137,
        "timestamp": "2025-12-22T04:03:39.553676+00:00",
        "meta_object_name": "IRIDIUM 33 DEB",
        "meta_object_id": "1997-051BV",
        "meta_epoch": "2025-12-21T20:10:45.329088",
        "meta_mean_motion": 14.85604614,
        "meta_eccentricity": 0.00073,
        "meta_inclination": 86.2546,
        "meta_ra_of_asc_node": 285.222,
        "meta_arg_of_pericenter": 45.5917,
        "meta_mean_anomaly": 13.1513,
        "meta_ephemeris_type": 0,
        "meta_classification_type": "U",
        "meta_norad_cat_id": 33960,
        "meta_element_set_no": 999,
        "meta_rev_at_epoch": 89002,
        "meta_bstar": 0.002534,
        "meta_mean_motion_dot": 0.00022006,
        "meta_mean_motion_ddot": 0,
        "tle_line1": "1 33960U 97051BV  25355.84080242  .00022006  00000+0  25340-2 0  9996",
        "tle_line2": "2 33960  86.2546 285.2220 0007300  45.5917  13.1513 14.85604614890028"
      },
      "geometry": {
        "type": "Point",
        "coordinates": [
          -74.01291448182428,
          13.771530271947501
        ]
      }
    },
    {
      "type": "Feature",
      "properties": {
        "norad_id": 33966,
        "name": "IRIDIUM 33 DEB",
        "group": "iridium-33-debris",
        "lat": -21.97619981092653,
        "lon": -136.56031998036363,
        "alt_km": 727.9855346248851,
        "timestamp": "2025-12-22T04:03:39.553686+00:00",
        "meta_object_name": "IRIDIUM 33 DEB",
        "meta_object_id": "1997-051CB",
        "meta_epoch": "2025-12-21T08:58:20.862048",
        "meta_mean_motion": 14.49625093,
        "meta_eccentricity": 0.00083762,
        "meta_inclination": 86.3913,
        "meta_ra_of_asc_node": 42.3217,
        "meta_arg_of_pericenter": 161.0555,
        "meta_mean_anomaly": 212.7611,
        "meta_ephemeris_type": 0,
        "meta_classification_type": "U",
        "meta_norad_cat_id": 33966,
        "meta_element_set_no": 999,
        "meta_rev_at_epoch": 88567,
        "meta_bstar": 0.00039236704,
        "meta_mean_motion_dot": 1.527e-05,
        "meta_mean_motion_ddot": 0,
        "tle_line1": "1 33966U 97051CB  25355.37385257  .00001527  00000+0  39237-3 0  9990",
        "tle_line2": "2 33966  86.3913  42.3217 0008376 161.0555 212.7611 14.49625093885672"
      },
      "geometry": {
        "type": "Point",
        "coordinates": [
          -136.56031998036363,
          -21.97619981092653
        ]
      }
    },
    {
      "type": "Feature",
      "properties": {
        "norad_id": 34071,
        "name": "IRIDIUM 33 DEB",
        "group": "iridium-33-debris",
        "lat": -82.91949811097852,
        "lon": -135.29811125137482,
        "alt_km": 741.7754335212439,
        "timestamp": "2025-12-22T04:03:39.553697+00:00",
        "meta_object_name": "IRIDIUM 33 DEB",
        "meta_object_id": "1997-051CE",
        "meta_epoch": "2025-12-21T18:33:48.284064",
        "meta_mean_motion": 14.49501025,
        "meta_eccentricity": 0.0009924,
        "meta_inclination": 86.3449,
        "meta_ra_of_asc_node": 13.9015,
        "meta_arg_of_pericenter": 83.2656,
        "meta_mean_anomaly": 276.9677,
        "meta_ephemeris_type": 0,
        "meta_classification_type": "U",
        "meta_norad_cat_id": 34071,
        "meta_element_set_no": 999,
        "meta_rev_at_epoch": 88465,
        "meta_bstar": 0.0004564,
        "meta_mean_motion_dot": 1.769e-05,
        "meta_mean_motion_ddot": 0,
        "tle_line1": "1 34071U 97051CE  25355.77347551  .00001769  00000+0  45640-3 0  9990",
        "tle_line2": "2 34071  86.3449  13.9015 0009924  83.2656 276.9677 14.49501025884650"
      },
      "geometry": {
        "type": "Point",
        "coordinates": [
          -135.29811125137482,
          -82.91949811097852
        ]
      }
    },
    {
      "type": "Feature",
      "properties": {
        "norad_id": 34077,
        "name": "IRIDIUM 33 DEB",
        "group": "iridium-33-debris",
        "lat": -85.9882628586486,
        "lon": -68.30355456780204,
        "alt_km": 685.951064414583,
        "timestamp": "2025-12-22T04:03:39.553707+00:00",
        "meta_object_name": "IRIDIUM 33 DEB",
        "meta_object_id": "1997-051CL",
        "meta_epoch": "2025-12-21T15:56:42.538272",
        "meta_mean_motion": 14.64926195,
        "meta_eccentricity": 0.0009169,
        "meta_inclination": 86.3851,
        "meta_ra_of_asc_node": 47.5759,
        "meta_arg_of_pericenter": 10.6785,
        "meta_mean_anomaly": 117.0898,
        "meta_ephemeris_type": 0,
        "meta_classification_type": "U",
        "meta_norad_cat_id": 34077,
        "meta_element_set_no": 999,
        "meta_rev_at_epoch": 88463,
        "meta_bstar": 0.00090411,
        "meta_mean_motion_dot": 4.859e-05,
        "meta_mean_motion_ddot": 0,
        "tle_line1": "1 34077U 97051CL  25355.66438123  .00004859  00000+0  90411-3 0  9999",
        "tle_line2": "2 34077  86.3851  47.5759 0009169  10.6785 117.0898 14.64926195884633"
      },
      "geometry": {
        "type": "Point",
        "coordinates": [
          -68.30355456780204,
          -85.9882628586486
        ]
      }
    }
  ]
}